[Satellite]
VERSION=1.1
NAME=ECHOSTAR 3
NICKNAME=ECHOSTAR 3
TLE1=1 25004U 97059A   15055.48511245 -.00000308  00000-0  10000-3 0  9993
TLE2=2 25004   0.4227  82.4666 0001820 214.4014 329.9775  1.00271530 63726
